[{"OBJECT_NAME":"STARLINK-4391","OBJECT_ID":"2022-084A","EPOCH":"2026-03-09T21:21:00.708192","MEAN_MOTION":15.05645954,"ECCENTRICITY":8.158e-5,"INCLINATION":97.6028,"RA_OF_ASC_NODE":131.3697,"ARG_OF_PERICENTER":109.974,"MEAN_ANOMALY":250.1575,"EPHEMERIS_TYPE":0,"CLASSIFICATION_TYPE":"U","NORAD_CAT_ID":53189,"ELEMENT_SET_NO":999,"REV_AT_EPOCH":20008,"BSTAR":9.767621e-6,"MEAN_MOTION_DOT":8.0e-7,"MEAN_MOTION_DDOT":0},{"OBJECT_NAME":"UNKNOWN","OBJECT_ID":"","EPOCH":"2026-03-09T06:40:17.770944","MEAN_MOTION":13.93999236,"ECCENTRICITY":0.0496409,"INCLINATION":63.0116,"RA_OF_ASC_NODE":359.5695,"ARG_OF_PERICENTER":301.9459,"MEAN_ANOMALY":53.4224,"EPHEMERIS_TYPE":0,"CLASSIFICATION_TYPE":"U","NORAD_CAT_ID":82205,"ELEMENT_SET_NO":999,"REV_AT_EPOCH":62006,"BSTAR":0.0010476,"MEAN_MOTION_DOT":3.786e-5,"MEAN_MOTION_DDOT":0}]
